[{"OBJECT_NAME":"STARLINK-35051","OBJECT_ID":"2025-191B","EPOCH":"2026-03-09T15:17:21.278112","MEAN_MOTION":15.05650082,"ECCENTRICITY":0.0002487,"INCLINATION":97.6019,"RA_OF_ASC_NODE":301.507,"ARG_OF_PERICENTER":67.5466,"MEAN_ANOMALY":292.6024,"EPHEMERIS_TYPE":0,"CLASSIFICATION_TYPE":"U","NORAD_CAT_ID":65380,"ELEMENT_SET_NO":999,"REV_AT_EPOCH":3027,"BSTAR":0.0001986,"MEAN_MOTION_DOT":2.806e-5,"MEAN_MOTION_DDOT":0},{"OBJECT_NAME":"SL-24 R\/B","OBJECT_ID":"2014-070F","EPOCH":"2026-03-09T19:25:54.271488","MEAN_MOTION":13.15221204,"ECCENTRICITY":0.09488935,"INCLINATION":97.1704,"RA_OF_ASC_NODE":356.0555,"ARG_OF_PERICENTER":79.027,"MEAN_ANOMALY":291.5995,"EPHEMERIS_TYPE":0,"CLASSIFICATION_TYPE":"U","NORAD_CAT_ID":40303,"ELEMENT_SET_NO":999,"REV_AT_EPOCH":54356,"BSTAR":0.00013695568,"MEAN_MOTION_DOT":5.82e-6,"MEAN_MOTION_DDOT":0}]
